NORAD_CAT_ID,OBJECT_NAME,OBJECT_TYPE,EPOCH,MEAN_MOTION,ECCENTRICITY,INCLINATION,RA_OF_ASC_NODE,ARG_OF_PERICENTER,MEAN_ANOMALY,BSTAR,MEAN_MOTION_DOT,MEAN_MOTION_DDOT,TLE_LINE0,TLE_LINE1,TLE_LINE2,SEMIMAJOR_AXIS,PERIOD,APOGEE,PERIGEE,DECAYED
54061.0,STARLINK-5209,PAYLOAD,2022-11-28 16:00:00,15.73374615,0.0001498,53.2174,312.3619,40.3771,119.5668,-0.0018236,-0.00250946,0.0,0 STARLINK-5209,1 54061U 22136L   22332.66667824 -.00250946  00000-0 -18236-2 0  9997,2 54061  53.2174 312.3619 0001498  40.3771 119.5668 15.73374615  6687,6727.397,91.523,350.27,348.255,0.0
54061.0,STARLINK-5209,PAYLOAD,2022-11-28 22:00:01,15.73186138,0.0001042,53.2148,311.1164,45.3162,91.4234,0.00058018,0.00081549,0.0,0 STARLINK-5209,1 54061U 22136L   22332.91668981  .00081549  00000-0  58018-3 0  9992,2 54061  53.2148 311.1164 0001042  45.3162  91.4234 15.73186138  1306,6727.935,91.534,350.501,349.099,0.0
54061.0,STARLINK-5209,PAYLOAD,2022-11-29 06:00:00,15.73243649,0.0001333,53.2151,309.4685,41.2597,184.3651,0.00032296,0.00045033,0.0,0 STARLINK-5209,1 54061U 22136L   22333.25001157  .00045033  00000-0  32296-3 0  9994,2 54061  53.2151 309.4685 0001333  41.2597 184.3651 15.73243649  6781,6727.771,91.531,350.533,348.73900000000015,0.0
54061.0,STARLINK-5209,PAYLOAD,2022-11-29 14:00:01,15.7328629,0.000137,53.2153,307.818,45.4072,269.2759,-0.00044257,-0.00062502,0.0,0 STARLINK-5209,1 54061U 22136L   22333.58335648 -.00062502  00000-0 -44257-3 0  9997,2 54061  53.2153 307.8180 0001370  45.4072 269.2759 15.73286290  1304,6727.649,91.528,350.436,348.592,0.0
54061.0,STARLINK-5209,PAYLOAD,2022-11-29 22:00:00,15.73276624,0.0001409,53.2158,306.1673,56.7033,346.9096,-0.00021803,-0.00031207,0.0,0 STARLINK-5209,1 54061U 22136L   22333.91667824 -.00031207  00000-0 -21803-3 0  9998,2 54061  53.2158 306.1673 0001409  56.7033 346.9096 15.73276624  6888,6727.677,91.529,350.49,348.594,0.0
54061.0,STARLINK-5209,PAYLOAD,2022-11-30 14:00:01,15.73150228,0.0001262999999999,53.216,302.8701,42.9604,178.6754,-0.00026492,-0.00037554,0.0,0 STARLINK-5209,1 54061U 22136L   22334.58335648 -.00037554  00000-0 -26492-3 0  9998,2 54061  53.2160 302.8701 0001263  42.9604 178.6754 15.73150228  6999,6728.0369999999975,91.536,350.75199999999984,349.052,0.0
54061.0,STARLINK-5209,PAYLOAD,2022-11-30 22:00:00,15.73141336,0.0001174,53.2167,301.2217,48.595,261.8218,0.00034217,0.00047553,0.0,0 STARLINK-5209,1 54061U 22136L   22334.91667824  .00047553  00000-0  34217-3 0  9991,2 54061  53.2167 301.2217 0001174  48.5950 261.8218 15.73141336  7045,6728.062,91.537,350.717,349.13800000000015,0.0
54061.0,STARLINK-5209,PAYLOAD,2022-12-01 06:00:00,15.73211619,0.000147,53.2165,299.5734,47.1409,352.2138,-0.00039565,-0.00055808,0.0,0 STARLINK-5209,1 54061U 22136L   22335.25001157 -.00055808  00000-0 -39565-3 0  9995,2 54061  53.2165 299.5734 0001470  47.1409 352.2138 15.73211619  7092,6727.861999999999,91.533,350.716,348.73800000000006,0.0
54061.0,STARLINK-5209,PAYLOAD,2022-12-01 14:00:01,15.73200478,0.0001448,53.2156,297.9205,53.4166,74.8875,0.00018546,0.00025487,0.0,0 STARLINK-5209,1 54061U 22136L   22335.58334491  .00025487  00000-0  18546-3 0  9995,2 54061  53.2156 297.9205 0001448  53.4166  74.8875 15.73200478  1306,6727.894,91.533,350.733,348.785,0.0
54061.0,STARLINK-5209,PAYLOAD,2022-12-01 22:00:00,15.73259919,0.0001467,53.2156,296.2703,63.0266,154.2031,-0.00023145,-0.00033059,0.0,0 STARLINK-5209,1 54061U 22136L   22335.91667824 -.00033059  00000-0 -23145-3 0  9998,2 54061  53.2156 296.2703 0001467  63.0266 154.2031 15.73259919  7206,6727.724,91.53,350.576,348.602,0.0
54061.0,STARLINK-5209,PAYLOAD,2022-12-02 14:00:01,15.73178973,0.0001234,53.2151,292.9717,51.5222,343.6123,6.8385e-06,3.39e-06,0.0,0 STARLINK-5209,1 54061U 22136L   22336.58334491  .00000339  00000-0  68385-5 0  9993,2 54061  53.2151 292.9717 0001234  51.5222 343.6123 15.73178973  1306,6727.955,91.534,350.65,348.99,0.0
54061.0,STARLINK-5209,PAYLOAD,2022-12-02 16:00:00,15.73150403,0.0001211,53.2152,292.5589,54.5141,92.8548,0.00049429,0.00069175,0.0,0 STARLINK-5209,1 54061U 22136L   22336.66667824  .00069175  00000-0  49429-3 0  9990,2 54061  53.2152 292.5589 0001211  54.5141  92.8548 15.73150403  7317,6728.0369999999975,91.536,350.716,349.087,0.0
54061.0,STARLINK-5209,PAYLOAD,2022-12-02 22:00:00,15.73219598,0.0001392,53.2154,291.3214,62.4329,61.5938,-0.00033711,-0.00047704,0.0,0 STARLINK-5209,1 54061U 22136L   22336.91667824 -.00047704  00000-0 -33711-3 0  9991,2 54061  53.2154 291.3214 0001392  62.4329  61.5938 15.73219598  1307,6727.839,91.532,350.641,348.76800000000014,0.0
54061.0,STARLINK-5209,PAYLOAD,2022-12-03 08:00:01,15.73184543,0.0001535,53.2153,289.2616,52.024,273.1572,5.7539e-05,7.457e-05,0.0,0 STARLINK-5209,1 54061U 22136L   22337.33334491  .00007457  00000-0  57539-4 0  9993,2 54061  53.2153 289.2616 0001535  52.0240 273.1572 15.73184543  7429,6727.939,91.534,350.837,348.772,0.0
54061.0,STARLINK-5209,PAYLOAD,2022-12-03 14:00:01,15.73176014,0.0001368,53.2154,288.0228,56.8255,245.0465,1.2732e-05,1.165e-05,0.0,0 STARLINK-5209,1 54061U 22136L   22337.58334491  .00001165  00000-0  12732-4 0  9996,2 54061  53.2154 288.0228 0001368  56.8255 245.0465 15.73176014  1302,6727.964,91.535,350.749,348.908,0.0
54061.0,STARLINK-5209,PAYLOAD,2022-12-03 22:00:00,15.73188158,0.0001353,53.2154,286.3734,62.8988,327.8621,0.00036825,0.00051352,0.0,0 STARLINK-5209,1 54061U 22136L   22337.91667824  .00051352  00000-0  36825-3 0  9993,2 54061  53.2154 286.3734 0001353  62.8988 327.8621 15.73188158  1304,6727.929,91.534,350.704,348.884,0.0
54061.0,STARLINK-5209,PAYLOAD,2022-12-04 14:00:01,15.7323333,0.0001229,53.215,283.074,56.7411,151.9232,-0.00021542,-0.00030785,0.0,0 STARLINK-5209,1 54061U 22136L   22338.58334491 -.00030785  00000-0 -21542-3 0  9997,2 54061  53.2150 283.0740 0001229  56.7411 151.9232 15.73233330  7624,6727.8,91.531,350.492,348.838,0.0
54061.0,STARLINK-5209,PAYLOAD,2022-12-04 22:00:00,15.73216006,0.0001279,53.2153,281.42400000000004,65.009,232.6132,0.00011959,0.00016207,0.0,0 STARLINK-5209,1 54061U 22136L   22338.91667824  .00016207  00000-0  11959-3 0  9995,2 54061  53.2153 281.4240 0001279  65.0090 232.6132 15.73216006  1301,6727.85,91.532,350.575,348.85400000000016,0.0
54061.0,STARLINK-5209,PAYLOAD,2022-12-05 06:00:00,15.73231982,0.0001354,53.2155,279.7763,55.6569,330.9267,1.3567e-05,1.287e-05,0.0,0 STARLINK-5209,1 54061U 22136L   22339.25001157  .00001287  00000-0  13567-4 0  9994,2 54061  53.2155 279.7763 0001354  55.6569 330.9267 15.73231982  7726,6727.804,91.531,350.58,348.7580000000001,0.0
54061.0,STARLINK-5209,PAYLOAD,2022-12-05 14:00:01,15.73239848,0.0001190999999999,53.2155,278.1248,59.1033,56.5065,-4.2582e-05,-6.602e-05,0.0,0 STARLINK-5209,1 54061U 22136L   22339.58335648 -.00006602  00000-0 -42582-4 0  9992,2 54061  53.2155 278.1248 0001191  59.1033  56.5065 15.73239848  1305,6727.781999999997,91.531,350.4480000000001,348.845,0.0
54061.0,STARLINK-5209,PAYLOAD,2022-12-05 16:00:00,15.73238452,0.0001179,53.2154,277.7121,61.6978,166.0911,-4.5462e-05,-7.005e-05,0.0,0 STARLINK-5209,1 54061U 22136L   22339.66667824 -.00007005  00000-0 -45462-4 0  9993,2 54061  53.2154 277.7121 0001179  61.6978 166.0911 15.73238452  1308,6727.786,91.531,350.444,348.857,0.0
54061.0,STARLINK-5209,PAYLOAD,2022-12-06 06:16:57,15.73222693,8.79e-05,53.2173,274.7653,94.1422,265.9699,-3.1067e-05,-4.981e-05,0.0,0 STARLINK-5209,1 54061U 22136L   22340.26177123 -.00004981  00000-0 -31067-4 0  9995,2 54061  53.2173 274.7653 0000879  94.1422 265.9699 15.73222693  7888,6727.83,91.532,350.287,349.10400000000016,0.0
54061.0,STARLINK-5209,PAYLOAD,2022-12-07 05:09:11,15.73175439,0.0001691,53.2155,270.0509,71.6318,288.4886,-2.9588e-05,-4.766e-05,0.0,0 STARLINK-5209,1 54061U 22136L   22341.21471813 -.00004766  00000-0 -29588-4 0  9990,2 54061  53.2155 270.0509 0001691  71.6318 288.4886 15.73175439  8035,6727.965,91.535,350.968,348.6930000000001,0.0
54061.0,STARLINK-5209,PAYLOAD,2022-12-07 12:46:36,15.73164916,0.0001209,53.2158,268.4805,70.8031,289.312,-8.345e-06,-1.789e-05,0.0,0 STARLINK-5209,1 54061U 22136L   22341.53236814 -.00001789  00000-0 -83450-5 0  9996,2 54061  53.2158 268.4805 0001209  70.8031 289.3120 15.73164916  8080,6727.995,91.535,350.6740000000001,349.047,0.0
54061.0,STARLINK-5209,PAYLOAD,2022-12-08 04:01:23,15.73225023,0.0001137,53.2158,265.3358,212.3439,147.7512,0.00015634,0.000214,0.0,0 STARLINK-5209,1 54061U 22136L   22342.16763147  .00021400  00000-0  15634-3 0  9997,2 54061  53.2158 265.3358 0001137 212.3439 147.7512 15.73225023  8184,6727.824000000001,91.532,350.454,348.9240000000001,0.0
54061.0,STARLINK-5209,PAYLOAD,2022-12-09 01:22:03,15.73257142,8.82e-05,53.2153,260.9387,32.6266,327.4808,-3.815e-05,-5.983e-05,0.0,0 STARLINK-5209,1 54061U 22136L   22343.05698828 -.00005983  00000-0 -38150-4 0  9998,2 54061  53.2153 260.9387 0000882  32.6266 327.4808 15.73257142  8327,6727.732,91.53,350.191,349.004,0.0
54061.0,STARLINK-5209,PAYLOAD,2022-12-09 18:08:20,15.73237211,0.0002025,53.215,257.4803,78.3437,281.781,-4.5943e-05,-7.075e-05,0.0,0 STARLINK-5209,1 54061U 22136L   22343.75578966 -.00007075  00000-0 -45943-4 0  9997,2 54061  53.2150 257.4803 0002025  78.3437 281.7810 15.73237211  8438,6727.7890000000025,91.531,351.016,348.292,0.0
54061.0,STARLINK-5209,PAYLOAD,2022-12-10 04:48:42,15.73189251,0.0001455,53.2149,255.2774,65.5586,294.5586,-9.696e-05,-0.00014199,0.0,0 STARLINK-5209,1 54061U 22136L   22344.20049193 -.00014199  00000-0 -96960-4 0  9993,2 54061  53.2149 255.2774 0001455  65.5586 294.5586 15.73189251  8508,6727.926,91.534,350.77,348.81199999999984,0.0
54061.0,STARLINK-5209,PAYLOAD,2022-12-11 03:40:57,15.73146054,5.62e-05,53.215,250.5641,50.7198,309.3872,-7.4177e-05,-0.0001099,0.0,0 STARLINK-5209,1 54061U 22136L   22345.15344067 -.00010990  00000-0 -74177-4 0  9997,2 54061  53.2150 250.5641 0000562  50.7198 309.3872 15.73146054  8657,6728.049,91.536,350.292,349.536,0.0
